IRIDIUM 154             
1 43574U 18061F   26175.20845442  .00000078  00000+0  20795-4 0  9990
2 43574  86.3958  53.8710 0002158  88.9066 271.2377 14.34217647414413
IRIDIUM 163             
1 43575U 18061G   26175.18942705  .00000055  00000+0  12694-4 0  9992
2 43575  86.3955  53.7940 0002211  83.4029 276.7419 14.34217247414383
IRIDIUM 156             
1 43576U 18061H   26175.16406263  .00000189  00000+0  60432-4 0  9996
2 43576  86.3956  53.8120 0002015  84.7520 275.3906 14.34217663414375
IRIDIUM 164             
1 43577U 18061J   26175.14502887  .00000078  00000+0  20677-4 0  9998
2 43577  86.3956  53.8603 0002184  89.5019 270.6427 14.34217836414418
IRIDIUM 159             
1 43578U 18061K   26175.18308445 -.00000017  00000+0 -13256-4 0  9997
2 43578  86.3950  53.7809 0002135  83.7249 276.4190 14.34217337414380
IRIDIUM 180             
1 43922U 19002A   26175.18258006  .00000071  00000+0  18241-4 0  9990
2 43922  86.3972 350.6724 0002246  89.3654 270.7800 14.34217825389992
IRIDIUM 176             
1 43923U 19002B   26175.22752464  .00000723  00000+0  11090-3 0  9991
2 43923  86.6088 350.5964 0002431  88.3317 271.8179 14.72222561400282
IRIDIUM 168             
1 43924U 19002C   26175.24599921  .00000209  00000+0  67417-4 0  9995
2 43924  86.3973 350.7234 0002231  90.5139 269.6312 14.34216534389988
IRIDIUM 173             
1 43925U 19002D   26175.23332103  .00000117  00000+0  34614-4 0  9993
2 43925  86.3971 350.6172 0002168  88.0130 272.1314 14.34218134389966
IRIDIUM 169             
1 43926U 19002E   26174.30358829  .00000228  00000+0  68181-4 0  9993
2 43926  86.4222  22.6356 0001682  78.0075 282.1311 14.38611400391108
IRIDIUM 172             
1 43927U 19002F   26175.22697601  .00000037  00000+0  61840-5 0  9994
2 43927  86.3971 350.6276 0002256  90.6302 269.5153 14.34216996389977
IRIDIUM 175             
1 43928U 19002G   26175.06869595  .00000256  00000+0  69613-4 0  9998
2 43928  86.4515 287.6441 0003402 160.3298 199.8035 14.43615979399978
IRIDIUM 171             
1 43929U 19002H   26175.20795028  .00000039  00000+0  67337-5 0  9995
2 43929  86.3981 350.9427 0002048  93.0970 267.0460 14.34217736389964
IRIDIUM 170             
1 43930U 19002J   26174.96182510  .00000631  00000+0  96235-4 0  9991
2 43930  86.6080 350.7107 0002334  93.1943 266.9541 14.72225467400257
IRIDIUM 167             
1 43931U 19002K   26174.99230188  .00000052  00000+0  11561-4 0  9996
2 43931  86.3973 350.7485 0001954  96.0973 264.0446 14.34217839389933
IRIDIUM 181             
1 56726U 23068S   26175.17805593  .00000225  00000+0  60757-4 0  9991
2 56726  86.4493  53.8681 0002404  88.0807 272.0669 14.43309544163441
IRIDIUM 177             
1 56727U 23068T   26175.15034068  .00000920  00000+0  11760-3 0  9992
2 56727  86.1970 325.4835 0002385  89.7084 270.4410 14.80223808167394
IRIDIUM 174             
1 56728U 23068U   26174.88153087  .00000655  00000+0  99942-4 0  9999
2 56728  86.6069 350.8900 0002424  79.8775 280.2716 14.72232645167001
IRIDIUM 178             
1 56729U 23068V   26175.07184533  .00000784  00000+0  99663-4 0  9995
2 56729  86.6535  22.4823 0002571  84.5951 275.5564 14.80243752167387
IRIDIUM 179             
1 56730U 23068W   26175.13407123  .00000796  00000+0  10130-3 0  9991
2 56730  86.6774  31.4564 0002450  89.0257 271.1246 14.80226344167399
