OBJECT_NAME,OBJECT_ID,EPOCH,MEAN_MOTION,ECCENTRICITY,INCLINATION,RA_OF_ASC_NODE,ARG_OF_PERICENTER,MEAN_ANOMALY,EPHEMERIS_TYPE,CLASSIFICATION_TYPE,NORAD_CAT_ID,ELEMENT_SET_NO,REV_AT_EPOCH,BSTAR,MEAN_MOTION_DOT,MEAN_MOTION_DDOT
IRIDIUM 154,2018-061F,2026-06-24T05:00:10.461888,14.34217647,.00021589,86.3958,53.8710,88.9066,271.2377,0,U,43574,999,41441,.20795053E-4,.78E-6,0
IRIDIUM 163,2018-061G,2026-06-24T04:32:46.497120,14.34217247,.00022118,86.3955,53.7940,83.4029,276.7419,0,U,43575,999,41438,.12693876E-4,.55E-6,0
IRIDIUM 156,2018-061H,2026-06-24T03:56:15.011232,14.34217663,.00020156,86.3956,53.8120,84.7520,275.3906,0,U,43576,999,41437,.60431827E-4,.189E-5,0
IRIDIUM 164,2018-061J,2026-06-24T03:28:50.494368,14.34217836,.00021842,86.3956,53.8603,89.5019,270.6427,0,U,43577,999,41441,.20676961E-4,.78E-6,0
IRIDIUM 159,2018-061K,2026-06-24T04:23:38.496480,14.34217337,.00021357,86.3950,53.7809,83.7249,276.4190,0,U,43578,999,41438,-.13255539E-4,-.17E-6,0
IRIDIUM 180,2019-002A,2026-06-24T04:22:54.917184,14.34217825,.00022468,86.3972,350.6724,89.3654,270.7800,0,U,43922,999,38999,.18240786E-4,.71E-6,0
IRIDIUM 176,2019-002B,2026-06-24T05:27:38.128896,14.72222561,.00024314,86.6088,350.5964,88.3317,271.8179,0,U,43923,999,40028,.11090466E-3,.723E-5,0
IRIDIUM 168,2019-002C,2026-06-24T05:54:14.331744,14.34216534,.00022312,86.3973,350.7234,90.5139,269.6312,0,U,43924,999,38998,.67416621E-4,.209E-5,0
IRIDIUM 173,2019-002D,2026-06-24T05:35:58.936992,14.34218134,.00021688,86.3971,350.6172,88.0130,272.1314,0,U,43925,999,38996,.34613734E-4,.117E-5,0
IRIDIUM 169,2019-002E,2026-06-23T07:17:10.028256,14.38611400,.00016829,86.4222,22.6356,78.0075,282.1311,0,U,43926,999,39110,.68181016E-4,.228E-5,0
IRIDIUM 172,2019-002F,2026-06-24T05:26:50.727264,14.34216996,.00022565,86.3971,350.6276,90.6302,269.5153,0,U,43927,999,38997,.6183973E-5,.37E-6,0
IRIDIUM 175,2019-002G,2026-06-24T01:38:55.330080,14.43615979,.00034028,86.4515,287.6441,160.3298,199.8035,0,U,43928,999,39997,.69613491E-4,.256E-5,0
IRIDIUM 171,2019-002H,2026-06-24T04:59:26.904192,14.34217736,.00020486,86.3981,350.9427,93.0970,267.0460,0,U,43929,999,38996,.6733653E-5,.39E-6,0
IRIDIUM 170,2019-002J,2026-06-23T23:05:01.688640,14.72225467,.00023347,86.6080,350.7107,93.1943,266.9541,0,U,43930,999,40025,.96235376E-4,.631E-5,0
IRIDIUM 167,2019-002K,2026-06-23T23:48:54.882432,14.34217839,.00019547,86.3973,350.7485,96.0973,264.0446,0,U,43931,999,38993,.11560533E-4,.52E-6,0
IRIDIUM 181,2023-068S,2026-06-24T04:16:24.032352,14.43309544,.00024049,86.4493,53.8681,88.0807,272.0669,0,U,56726,999,16344,.60757087E-4,.225E-5,0
IRIDIUM 177,2023-068T,2026-06-24T03:36:29.434752,14.80223808,.0002385,86.1970,325.4835,89.7084,270.4410,0,U,56727,999,16739,.1176034E-3,.92E-5,0
IRIDIUM 174,2023-068U,2026-06-23T21:09:24.267168,14.72232645,.00024249,86.6069,350.8900,79.8775,280.2716,0,U,56728,999,16700,.99942308E-4,.655E-5,0
IRIDIUM 178,2023-068V,2026-06-24T01:43:27.436512,14.80243752,.00025717,86.6535,22.4823,84.5951,275.5564,0,U,56729,999,16738,.99663064E-4,.784E-5,0
IRIDIUM 179,2023-068W,2026-06-24T03:13:03.754272,14.80226344,.00024507,86.6774,31.4564,89.0257,271.1246,0,U,56730,999,16739,.10130253E-3,.796E-5,0
